[{"OBJECT_NAME":"STARLINK-33961","OBJECT_ID":"2025-102AB","EPOCH":"2026-03-09T12:04:41.060064","MEAN_MOTION":14.98362597,"ECCENTRICITY":0.00027971,"INCLINATION":70.0017,"RA_OF_ASC_NODE":114.9515,"ARG_OF_PERICENTER":251.6237,"MEAN_ANOMALY":108.4618,"EPHEMERIS_TYPE":0,"CLASSIFICATION_TYPE":"U","NORAD_CAT_ID":64047,"ELEMENT_SET_NO":999,"REV_AT_EPOCH":4580,"BSTAR":-0.0019274743,"MEAN_MOTION_DOT":-0.00023035,"MEAN_MOTION_DDOT":0},{"OBJECT_NAME":"DEMOSAT\/FALCON 1","OBJECT_ID":"2008-048A","EPOCH":"2026-03-09T20:26:53.902464","MEAN_MOTION":14.96189084,"ECCENTRICITY":0.00103169,"INCLINATION":9.3439,"RA_OF_ASC_NODE":185.2154,"ARG_OF_PERICENTER":2.5079,"MEAN_ANOMALY":357.5172,"EPHEMERIS_TYPE":0,"CLASSIFICATION_TYPE":"U","NORAD_CAT_ID":33393,"ELEMENT_SET_NO":999,"REV_AT_EPOCH":94801,"BSTAR":0.00032870725,"MEAN_MOTION_DOT":4.521e-5,"MEAN_MOTION_DDOT":0}]
